{"type": "FeatureCollection", "features": [ {"type": "Feature", "properties": {"norad_id": 17070, "name": "POLAR BEAR", "group": "nnss", "lat": -79.97904332985641, "lon": -178.2516957202975, "alt_km": 1014.3559705030739, "timestamp": "2025-12-09T05:43:20.994281+00:00", "meta": {"OBJECT_NAME": "POLAR BEAR", "OBJECT_ID": "1986-088A", "EPOCH": "2025-12-08T19:41:15.266112", "MEAN_MOTION": 13.75249711, "ECCENTRICITY": 0.0040729, "INCLINATION": 89.6177, "RA_OF_ASC_NODE": 183.9305, "ARG_OF_PERICENTER": 130.6154, "MEAN_ANOMALY": 240.374, "EPHEMERIS_TYPE": 0, "CLASSIFICATION_TYPE": "U", "NORAD_CAT_ID": 17070, "ELEMENT_SET_NO": 999, "REV_AT_EPOCH": 95925, "BSTAR": 0.00016884, "MEAN_MOTION_DOT": 1.74e-06, "MEAN_MOTION_DDOT": 0}, "tle": {"line1": "1 17070U 86088A   25342.82031558  .00000174  00000+0  16884-3 0  9994", "line2": "2 17070  89.6177 183.9305 0040729 130.6154 240.3740 13.75249711959256"}}, "geometry": {"type": "Point", "coordinates": [-178.2516957202975, -79.97904332985641]}}, {"type": "Feature", "properties": {"norad_id": 18361, "name": "OSCAR 27", "group": "nnss", "lat": -18.628257545766825, "lon": -100.98495758835375, "alt_km": 1033.364396480256, "timestamp": "2025-12-09T05:43:20.994292+00:00", "meta": {"OBJECT_NAME": "OSCAR 27", "OBJECT_ID": "1987-080A", "EPOCH": "2025-12-08T19:48:08.783424", "MEAN_MOTION": 13.44905625, "ECCENTRICITY": 0.0102639, "INCLINATION": 90.3742, "RA_OF_ASC_NODE": 79.1258, "ARG_OF_PERICENTER": 235.1417, "MEAN_ANOMALY": 124.0048, "EPHEMERIS_TYPE": 0, "CLASSIFICATION_TYPE": "U", "NORAD_CAT_ID": 18361, "ELEMENT_SET_NO": 999, "REV_AT_EPOCH": 87504, "BSTAR": 0.00032145, "MEAN_MOTION_DOT": 2.02e-06, "MEAN_MOTION_DDOT": 0}, "tle": {"line1": "1 18361U 87080A   25342.82510166  .00000202  00000+0  32145-3 0  9998", "line2": "2 18361  90.3742  79.1258 0102639 235.1417 124.0048 13.44905625875044"}}, "geometry": {"type": "Point", "coordinates": [-100.98495758835375, -18.628257545766825]}}, {"type": "Feature", "properties": {"norad_id": 18362, "name": "OSCAR 29", "group": "nnss", "lat": -36.47807437759644, "lon": -100.67779753795084, "alt_km": 1040.2325017110588, "timestamp": "2025-12-09T05:43:20.994302+00:00", "meta": {"OBJECT_NAME": "OSCAR 29", "OBJECT_ID": "1987-080B", "EPOCH": "2025-12-08T20:17:27.476160", "MEAN_MOTION": 13.44447461, "ECCENTRICITY": 0.0103766, "INCLINATION": 90.3754, "RA_OF_ASC_NODE": 79.5852, "ARG_OF_PERICENTER": 258.4853, "MEAN_ANOMALY": 217.7657, "EPHEMERIS_TYPE": 0, "CLASSIFICATION_TYPE": "U", "NORAD_CAT_ID": 18362, "ELEMENT_SET_NO": 999, "REV_AT_EPOCH": 87457, "BSTAR": 0.00028904, "MEAN_MOTION_DOT": 1.81e-06, "MEAN_MOTION_DDOT": 0}, "tle": {"line1": "1 18362U 87080B   25342.84545690  .00000181  00000+0  28904-3 0  9995", "line2": "2 18362  90.3754  79.5852 0103766 258.4853 217.7657 13.44447461874578"}}, "geometry": {"type": "Point", "coordinates": [-100.67779753795084, -36.47807437759644]}}, {"type": "Feature", "properties": {"norad_id": 19070, "name": "OSCAR 23", "group": "nnss", "lat": -22.84101598131358, "lon": -163.85130822069416, "alt_km": 1021.5199043682405, "timestamp": "2025-12-09T05:43:20.994312+00:00", "meta": {"OBJECT_NAME": "OSCAR 23", "OBJECT_ID": "1988-033A", "EPOCH": "2025-12-08T16:39:12.267072", "MEAN_MOTION": 13.27786374, "ECCENTRICITY": 0.0189183, "INCLINATION": 90.3215, "RA_OF_ASC_NODE": 16.2672, "ARG_OF_PERICENTER": 191.1838, "MEAN_ANOMALY": 289.6353, "EPHEMERIS_TYPE": 0, "CLASSIFICATION_TYPE": "U", "NORAD_CAT_ID": 19070, "ELEMENT_SET_NO": 999, "REV_AT_EPOCH": 82199, "BSTAR": 0.0002189, "MEAN_MOTION_DOT": 1.17e-06, "MEAN_MOTION_DDOT": 0}, "tle": {"line1": "1 19070U 88033A   25342.69389198  .00000117  00000+0  21890-3 0  9999", "line2": "2 19070  90.3215  16.2672 0189183 191.1838 289.6353 13.27786374821997"}}, "geometry": {"type": "Point", "coordinates": [-163.85130822069416, -22.84101598131358]}}, {"type": "Feature", "properties": {"norad_id": 19071, "name": "OSCAR 32", "group": "nnss", "lat": -48.092714912747304, "lon": 16.775080837284747, "alt_km": 1261.0379628103656, "timestamp": "2025-12-09T05:43:20.994323+00:00", "meta": {"OBJECT_NAME": "OSCAR 32", "OBJECT_ID": "1988-033B", "EPOCH": "2025-12-08T19:59:46.320000", "MEAN_MOTION": 13.27953304, "ECCENTRICITY": 0.0188037, "INCLINATION": 90.3221, "RA_OF_ASC_NODE": 16.4033, "ARG_OF_PERICENTER": 177.6421, "MEAN_ANOMALY": 356.5363, "EPHEMERIS_TYPE": 0, "CLASSIFICATION_TYPE": "U", "NORAD_CAT_ID": 19071, "ELEMENT_SET_NO": 999, "REV_AT_EPOCH": 82213, "BSTAR": 0.00020453, "MEAN_MOTION_DOT": 1.1e-06, "MEAN_MOTION_DDOT": 0}, "tle": {"line1": "1 19071U 88033B   25342.83317500  .00000110  00000+0  20453-3 0  9991", "line2": "2 19071  90.3221  16.4033 0188037 177.6421 356.5363 13.27953304822133"}}, "geometry": {"type": "Point", "coordinates": [16.775080837284747, -48.092714912747304]}}, {"type": "Feature", "properties": {"norad_id": 19223, "name": "NOVA 2", "group": "nnss", "lat": -30.92418255030347, "lon": -101.71546050062804, "alt_km": 1202.798008960408, "timestamp": "2025-12-09T05:43:20.994333+00:00", "meta": {"OBJECT_NAME": "NOVA 2", "OBJECT_ID": "1988-052A", "EPOCH": "2025-12-08T20:11:09.000096", "MEAN_MOTION": 13.22935298, "ECCENTRICITY": 0.0030913, "INCLINATION": 89.9871, "RA_OF_ASC_NODE": 78.2773, "ARG_OF_PERICENTER": 27.4804, "MEAN_ANOMALY": 92.006, "EPHEMERIS_TYPE": 0, "CLASSIFICATION_TYPE": "U", "NORAD_CAT_ID": 19223, "ELEMENT_SET_NO": 999, "REV_AT_EPOCH": 80896, "BSTAR": 0.00025593, "MEAN_MOTION_DOT": 1.17e-06, "MEAN_MOTION_DDOT": 0}, "tle": {"line1": "1 19223U 88052A   25342.84107639  .00000117  00000+0  25593-3 0  9999", "line2": "2 19223  89.9871  78.2773 0030913  27.4804  92.0060 13.22935298808968"}}, "geometry": {"type": "Point", "coordinates": [-101.71546050062804, -30.92418255030347]}}, {"type": "Feature", "properties": {"norad_id": 19419, "name": "OSCAR 25", "group": "nnss", "lat": 39.79082515080421, "lon": 20.203543512881385, "alt_km": 1153.1841654635791, "timestamp": "2025-12-09T05:43:20.994344+00:00", "meta": {"OBJECT_NAME": "OSCAR 25", "OBJECT_ID": "1988-074A", "EPOCH": "2025-12-08T15:51:37.814112", "MEAN_MOTION": 13.42622325, "ECCENTRICITY": 0.0094302, "INCLINATION": 90.035, "RA_OF_ASC_NODE": 20.2307, "ARG_OF_PERICENTER": 257.6847, "MEAN_ANOMALY": 231.4819, "EPHEMERIS_TYPE": 0, "CLASSIFICATION_TYPE": "U", "NORAD_CAT_ID": 19419, "ELEMENT_SET_NO": 999, "REV_AT_EPOCH": 82585, "BSTAR": 0.00027332, "MEAN_MOTION_DOT": 1.67e-06, "MEAN_MOTION_DDOT": 0}, "tle": {"line1": "1 19419U 88074A   25342.66085433  .00000167  00000+0  27332-3 0  9995", "line2": "2 19419  90.0350  20.2307 0094302 257.6847 231.4819 13.42622325825850"}}, "geometry": {"type": "Point", "coordinates": [20.203543512881385, 39.79082515080421]}}, {"type": "Feature", "properties": {"norad_id": 19420, "name": "OSCAR 31", "group": "nnss", "lat": -75.95231416809736, "lon": 20.72890525903688, "alt_km": 1049.4668457526777, "timestamp": "2025-12-09T05:43:20.994354+00:00", "meta": {"OBJECT_NAME": "OSCAR 31", "OBJECT_ID": "1988-074B", "EPOCH": "2025-12-08T20:14:32.045280", "MEAN_MOTION": 13.42583793, "ECCENTRICITY": 0.0092581, "INCLINATION": 90.0367, "RA_OF_ASC_NODE": 20.5807, "ARG_OF_PERICENTER": 251.2576, "MEAN_ANOMALY": 284.1517, "EPHEMERIS_TYPE": 0, "CLASSIFICATION_TYPE": "U", "NORAD_CAT_ID": 19420, "ELEMENT_SET_NO": 999, "REV_AT_EPOCH": 82598, "BSTAR": 0.00022567, "MEAN_MOTION_DOT": 1.39e-06, "MEAN_MOTION_DDOT": 0}, "tle": {"line1": "1 19420U 88074B   25342.84342645  .00000139  00000+0  22567-3 0  9992", "line2": "2 19420  90.0367  20.5807 0092581 251.2576 284.1517 13.42583793825983"}}, "geometry": {"type": "Point", "coordinates": [20.72890525903688, -75.95231416809736]}}]}